[{"OBJECT_NAME":"QIANFAN-35","OBJECT_ID":"2024-185S","EPOCH":"2026-03-09T22:26:33.581760","MEAN_MOTION":14.28128705,"ECCENTRICITY":0.00069627,"INCLINATION":88.9749,"RA_OF_ASC_NODE":66.6226,"ARG_OF_PERICENTER":20.1226,"MEAN_ANOMALY":340.0242,"EPHEMERIS_TYPE":0,"CLASSIFICATION_TYPE":"U","NORAD_CAT_ID":61568,"ELEMENT_SET_NO":999,"REV_AT_EPOCH":8262,"BSTAR":0.00043408229,"MEAN_MOTION_DOT":1.093e-5,"MEAN_MOTION_DDOT":0},{"OBJECT_NAME":"CZ-6A DEB","OBJECT_ID":"2022-151AFW","EPOCH":"2026-03-08T09:25:05.091456","MEAN_MOTION":14.49014492,"ECCENTRICITY":0.01042847,"INCLINATION":98.7073,"RA_OF_ASC_NODE":133.2024,"ARG_OF_PERICENTER":257.0673,"MEAN_ANOMALY":101.8857,"EPHEMERIS_TYPE":0,"CLASSIFICATION_TYPE":"U","NORAD_CAT_ID":56646,"ELEMENT_SET_NO":999,"REV_AT_EPOCH":15146,"BSTAR":0.00070712865,"MEAN_MOTION_DOT":2.822e-5,"MEAN_MOTION_DDOT":0}]
